{"type": "FeatureCollection", "generated_at": "2026-09-29T23:11:29.732303+00:00", "features": [{"type": "Feature", "geometry": {"type": "Point", "coordinates": [7.1337, 50.873]}, "properties": {"icao24": "a48850", "callsign": "UPS257", "origin_country": "United States", "altitude_m": null, "velocity_ms": 2.57, "heading": 300.94, "on_ground": true}}, {"type": "Feature", "geometry": {"type": "Point", "coordinates": [5.407, 50.8524]}, "properties": {"icao24": "ac498c", "callsign": "FDX5809", "origin_country": "United States", "altitude_m": 1630.68, "velocity_ms": 126.67, "heading": 97.7, "on_ground": false}}, {"type": "Feature", "geometry": {"type": "Point", "coordinates": [-1.421, 41.7977]}, "properties": {"icao24": "44028a", "callsign": "EJU36QL", "origin_country": "Austria", "altitude_m": 11582.4, "velocity_ms": 237.15, "heading": 41.92, "on_ground": false}}, {"type": "Feature", "geometry": {"type": "Point", "coordinates": [7.0834, 50.9123]}, "properties": {"icao24": "3c5ee8", "callsign": "EWG09NC", "origin_country": "Germany", "altitude_m": 289.56, "velocity_ms": 65.51, "heading": 136.91, "on_ground": false}}, {"type": "Feature", "geometry": {"type": "Point", "coordinates": [2.5018, 49.0149]}, "properties": {"icao24": "440202", "callsign": "TAY1LA", "origin_country": "Austria", "altitude_m": null, "velocity_ms": 0, "heading": 354.38, "on_ground": true}}, {"type": "Feature", "geometry": {"type": "Point", "coordinates": [2.5071, 49.0162]}, "properties": {"icao24": "4520ea", "callsign": "", "origin_country": "Bulgaria", "altitude_m": null, "velocity_ms": 9.77, "heading": 264.38, "on_ground": true}}, {"type": "Feature", "geometry": {"type": "Point", "coordinates": [-0.7883, 47.3817]}, "properties": {"icao24": "407b70", "callsign": "WUK45LH", "origin_country": "United Kingdom", "altitude_m": 11582.4, "velocity_ms": 245.5, "heading": 354.47, "on_ground": false}}, {"type": "Feature", "geometry": {"type": "Point", "coordinates": [2.0829, 41.2936]}, "properties": {"icao24": "3443d4", "callsign": "VLG1QB", "origin_country": "Spain", "altitude_m": null, "velocity_ms": 7.72, "heading": 247.5, "on_ground": true}}, {"type": "Feature", "geometry": {"type": "Point", "coordinates": [6.1213, 43.4828]}, "properties": {"icao24": "3443d5", "callsign": "VLG55RF", "origin_country": "Spain", "altitude_m": 9448.8, "velocity_ms": 241.79, "heading": 234.79, "on_ground": false}}, {"type": "Feature", "geometry": {"type": "Point", "coordinates": [2.3533, 48.7286]}, "properties": {"icao24": "3b3dff", "callsign": "TVX5", "origin_country": "France", "altitude_m": null, "velocity_ms": 8.23, "heading": 202.5, "on_ground": true}}, {"type": "Feature", "geometry": {"type": "Point", "coordinates": [7.1398, 50.8689]}, "properties": {"icao24": "4bc845", "callsign": "PGT946C", "origin_country": "Turkey", "altitude_m": null, "velocity_ms": 7.2, "heading": 317.81, "on_ground": true}}, {"type": "Feature", "geometry": {"type": "Point", "coordinates": [-4.6333, 46.5252]}, "properties": {"icao24": "4787a0", "callsign": "NSZ6BG", "origin_country": "Norway", "altitude_m": 10668, "velocity_ms": 187.26, "heading": 199.08, "on_ground": false}}, {"type": "Feature", "geometry": {"type": "Point", "coordinates": [0.4581, 41.2572]}, "properties": {"icao24": "738068", "callsign": "ELY376", "origin_country": "Israel", "altitude_m": 10363.2, "velocity_ms": 242.43, "heading": 95.6, "on_ground": false}}, {"type": "Feature", "geometry": {"type": "Point", "coordinates": [2.3843, 48.7327]}, "properties": {"icao24": "3ac1ff", "callsign": "BAL8", "origin_country": "France", "altitude_m": null, "velocity_ms": 12.86, "heading": 19.69, "on_ground": true}}, {"type": "Feature", "geometry": {"type": "Point", "coordinates": [7.1247, 50.8721]}, "properties": {"icao24": "45202b", "callsign": "CGF1809", "origin_country": "Bulgaria", "altitude_m": null, "velocity_ms": 1.29, "heading": 329.06, "on_ground": true}}, {"type": "Feature", "geometry": {"type": "Point", "coordinates": [2.3704, 48.7249]}, "properties": {"icao24": "3b07ff", "callsign": "", "origin_country": "France", "altitude_m": null, "velocity_ms": 13.38, "heading": 163.12, "on_ground": true}}, {"type": "Feature", "geometry": {"type": "Point", "coordinates": [7.1212, 50.8806]}, "properties": {"icao24": "471d6c", "callsign": "WMT9JC", "origin_country": "Hungary", "altitude_m": null, "velocity_ms": 0, "heading": 216.56, "on_ground": true}}, {"type": "Feature", "geometry": {"type": "Point", "coordinates": [2.3794, 48.7221]}, "properties": {"icao24": "3ad3ff", "callsign": "ENT2", "origin_country": "France", "altitude_m": null, "velocity_ms": 0, "heading": 298.12, "on_ground": true}}, {"type": "Feature", "geometry": {"type": "Point", "coordinates": [4.8933, 42.0444]}, "properties": {"icao24": "440198", "callsign": "EJU17BL", "origin_country": "Austria", "altitude_m": 10980.42, "velocity_ms": 232.97, "heading": 48.85, "on_ground": false}}, {"type": "Feature", "geometry": {"type": "Point", "coordinates": [0.2499, 49.3407]}, "properties": {"icao24": "343046", "callsign": "VLG17UR", "origin_country": "Spain", "altitude_m": 11277.6, "velocity_ms": 225.78, "heading": 163.59, "on_ground": false}}, {"type": "Feature", "geometry": {"type": "Point", "coordinates": [-2.0642, 42.3863]}, "properties": {"icao24": "020140", "callsign": "MAC228A", "origin_country": "Morocco", "altitude_m": 11292.84, "velocity_ms": 212.81, "heading": 209.23, "on_ground": false}}, {"type": "Feature", "geometry": {"type": "Point", "coordinates": [1.7414, 41.4527]}, "properties": {"icao24": "346612", "callsign": "VOE3DA", "origin_country": "Spain", "altitude_m": 11292.84, "velocity_ms": 224.82, "heading": 297.68, "on_ground": false}}, {"type": "Feature", "geometry": {"type": "Point", "coordinates": [2.1004, 41.3109]}, "properties": {"icao24": "345453", "callsign": "F22", "origin_country": "Spain", "altitude_m": null, "velocity_ms": 8.75, "heading": 64.69, "on_ground": true}}, {"type": "Feature", "geometry": {"type": "Point", "coordinates": [1.6477, 48.9012]}, "properties": {"icao24": "484c59", "callsign": "TRA23K", "origin_country": "Kingdom of the Netherlands", "altitude_m": 11582.4, "velocity_ms": 238.22, "heading": 28.23, "on_ground": false}}, {"type": "Feature", "geometry": {"type": "Point", "coordinates": [1.86, 43.5837]}, "properties": {"icao24": "a7bf0d", "callsign": "N599CE", "origin_country": "United States", "altitude_m": 13106.4, "velocity_ms": 247.55, "heading": 175.95, "on_ground": false}}, {"type": "Feature", "geometry": {"type": "Point", "coordinates": [7.9068, 42.6491]}, "properties": {"icao24": "4078ef", "callsign": "EZY68YJ", "origin_country": "United Kingdom", "altitude_m": 10972.8, "velocity_ms": 218.11, "heading": 333.98, "on_ground": false}}, {"type": "Feature", "geometry": {"type": "Point", "coordinates": [6.1022, 44.9465]}, "properties": {"icao24": "34648a", "callsign": "BCS7AG", "origin_country": "Spain", "altitude_m": 8229.6, "velocity_ms": 220.96, "heading": 87.2, "on_ground": false}}, {"type": "Feature", "geometry": {"type": "Point", "coordinates": [2.3669, 45.7318]}, "properties": {"icao24": "346489", "callsign": "SWT3513", "origin_country": "Spain", "altitude_m": 9448.8, "velocity_ms": 228.06, "heading": 115.24, "on_ground": false}}, {"type": "Feature", "geometry": {"type": "Point", "coordinates": [9.54, 48.7299]}, "properties": {"icao24": "407959", "callsign": "EZY41ZQ", "origin_country": "United Kingdom", "altitude_m": 10965.18, "velocity_ms": 216.45, "heading": 303.46, "on_ground": false}}, {"type": "Feature", "geometry": {"type": "Point", "coordinates": [3.389, 41.0793]}, "properties": {"icao24": "4ca4f8", "callsign": "RYR50ZJ", "origin_country": "Ireland", "altitude_m": 6629.4, "velocity_ms": 211.44, "heading": 270, "on_ground": false}}, {"type": "Feature", "geometry": {"type": "Point", "coordinates": [6.8279, 49.6386]}, "properties": {"icao24": "3e010d", "callsign": "SRP4", "origin_country": "Germany", "altitude_m": 853.44, "velocity_ms": 0, "heading": 0, "on_ground": false}}, {"type": "Feature", "geometry": {"type": "Point", "coordinates": [1.8619, 41.839]}, "properties": {"icao24": "4ca4ec", "callsign": "RYR36PL", "origin_country": "Ireland", "altitude_m": 5638.8, "velocity_ms": 179.19, "heading": 187.92, "on_ground": false}}, {"type": "Feature", "geometry": {"type": "Point", "coordinates": [4.4668, 50.9049]}, "properties": {"icao24": "448165", "callsign": "FIRE182", "origin_country": "Belgium", "altitude_m": null, "velocity_ms": 5.14, "heading": 298.12, "on_ground": true}}, {"type": "Feature", "geometry": {"type": "Point", "coordinates": [2.252, 48.8799]}, "properties": {"icao24": "394a09", "callsign": "AFR454", "origin_country": "France", "altitude_m": 4815.84, "velocity_ms": 168.13, "heading": 253.28, "on_ground": false}}, {"type": "Feature", "geometry": {"type": "Point", "coordinates": [2.3762, 48.7431]}, "properties": {"icao24": "394a0c", "callsign": "", "origin_country": "France", "altitude_m": null, "velocity_ms": 0, "heading": 90, "on_ground": true}}, {"type": "Feature", "geometry": {"type": "Point", "coordinates": [9.0097, 45.282]}, "properties": {"icao24": "06a3b6", "callsign": "QTR8058", "origin_country": "Qatar", "altitude_m": 1760.22, "velocity_ms": 116.41, "heading": 261.87, "on_ground": false}}, {"type": "Feature", "geometry": {"type": "Point", "coordinates": [3.7336, 49.5492]}, "properties": {"icao24": "502d5a", "callsign": "BTI42U", "origin_country": "Latvia", "altitude_m": 11582.4, "velocity_ms": 216.28, "heading": 47.51, "on_ground": false}}, {"type": "Feature", "geometry": {"type": "Point", "coordinates": [7.737, 47.5015]}, "properties": {"icao24": "48b207", "callsign": "IGA602", "origin_country": "Poland", "altitude_m": 12184.38, "velocity_ms": 212.59, "heading": 5.97, "on_ground": false}}, {"type": "Feature", "geometry": {"type": "Point", "coordinates": [7.1247, 50.8711]}, "properties": {"icao24": "3435d2", "callsign": "SWT2CW", "origin_country": "Spain", "altitude_m": null, "velocity_ms": 2.83, "heading": 47.81, "on_ground": true}}, {"type": "Feature", "geometry": {"type": "Point", "coordinates": [2.3706, 48.7271]}, "properties": {"icao24": "3b87ff", "callsign": "", "origin_country": "France", "altitude_m": null, "velocity_ms": 7.72, "heading": 323.44, "on_ground": true}}, {"type": "Feature", "geometry": {"type": "Point", "coordinates": [5.2523, 44.9878]}, "properties": {"icao24": "50807b", "callsign": "MSI6549", "origin_country": "Ukraine", "altitude_m": 6705.6, "velocity_ms": 144.38, "heading": 78.49, "on_ground": false}}, {"type": "Feature", "geometry": {"type": "Point", "coordinates": [4.2135, 49.2798]}, "properties": {"icao24": "406e65", "callsign": "EZY31DV", "origin_country": "United Kingdom", "altitude_m": 10980.42, "velocity_ms": 222.73, "heading": 297.51, "on_ground": false}}, {"type": "Feature", "geometry": {"type": "Point", "coordinates": [3.0742, 41.3491]}, "properties": {"icao24": "407fcc", "callsign": "BAW59", "origin_country": "United Kingdom", "altitude_m": 10668, "velocity_ms": 263.88, "heading": 176.54, "on_ground": false}}, {"type": "Feature", "geometry": {"type": "Point", "coordinates": [2.035, 41.1723]}, "properties": {"icao24": "342582", "callsign": "VLG5DK", "origin_country": "Spain", "altitude_m": 563.88, "velocity_ms": 100.4, "heading": 2.35, "on_ground": false}}, {"type": "Feature", "geometry": {"type": "Point", "coordinates": [5.6844, 43.1715]}, "properties": {"icao24": "4ca256", "callsign": "RYR46SZ", "origin_country": "Ireland", "altitude_m": 12496.8, "velocity_ms": 241.59, "heading": 212.74, "on_ground": false}}, {"type": "Feature", "geometry": {"type": "Point", "coordinates": [9.6861, 48.8917]}, "properties": {"icao24": "407e7b", "callsign": "TOM78X", "origin_country": "United Kingdom", "altitude_m": 11582.4, "velocity_ms": 219.87, "heading": 301.61, "on_ground": false}}, {"type": "Feature", "geometry": {"type": "Point", "coordinates": [-0.8899, 47.4176]}, "properties": {"icao24": "407e82", "callsign": "RUK3213", "origin_country": "United Kingdom", "altitude_m": 10972.8, "velocity_ms": 244.77, "heading": 351.05, "on_ground": false}}, {"type": "Feature", "geometry": {"type": "Point", "coordinates": [7.1408, 49.8279]}, "properties": {"icao24": "407e69", "callsign": "EXS6AJ", "origin_country": "United Kingdom", "altitude_m": 10972.8, "velocity_ms": 215.88, "heading": 303.73, "on_ground": false}}, {"type": "Feature", "geometry": {"type": "Point", "coordinates": [8.7207, 45.638]}, "properties": {"icao24": "71c383", "callsign": "AAR582", "origin_country": "Republic of Korea", "altitude_m": 198.12, "velocity_ms": 90.3, "heading": 348.5, "on_ground": false}}, {"type": "Feature", "geometry": {"type": "Point", "coordinates": [9.3964, 48.2645]}, "properties": {"icao24": "407e53", "callsign": "EXS13EV", "origin_country": "United Kingdom", "altitude_m": 10965.18, "velocity_ms": 221.09, "heading": 296.39, "on_ground": false}}, {"type": "Feature", "geometry": {"type": "Point", "coordinates": [8.898, 49.0303]}, "properties": {"icao24": "407e54", "callsign": "EXS70VV", "origin_country": "United Kingdom", "altitude_m": 11567.16, "velocity_ms": 212.91, "heading": 302.77, "on_ground": false}}, {"type": "Feature", "geometry": {"type": "Point", "coordinates": [-1.2314, 49.1992]}, "properties": {"icao24": "406c72", "callsign": "EZY72QP", "origin_country": "United Kingdom", "altitude_m": 11277.6, "velocity_ms": 252.75, "heading": 10.56, "on_ground": false}}, {"type": "Feature", "geometry": {"type": "Point", "coordinates": [4.4599, 50.9035]}, "properties": {"icao24": "407ea0", "callsign": "DHK453", "origin_country": "United Kingdom", "altitude_m": null, "velocity_ms": 0, "heading": 334.69, "on_ground": true}}, {"type": "Feature", "geometry": {"type": "Point", "coordinates": [8.3197, 47.382]}, "properties": {"icao24": "4b42f3", "callsign": "LAS1", "origin_country": "Switzerland", "altitude_m": 1150.62, "velocity_ms": 66.4, "heading": 268.22, "on_ground": false}}, {"type": "Feature", "geometry": {"type": "Point", "coordinates": [5.2668, 48.8992]}, "properties": {"icao24": "406ac3", "callsign": "EXS17MT", "origin_country": "United Kingdom", "altitude_m": 11582.4, "velocity_ms": 216.39, "heading": 306.3, "on_ground": false}}, {"type": "Feature", "geometry": {"type": "Point", "coordinates": [7.0165, 50.9579]}, "properties": {"icao24": "45cf21", "callsign": "SRR6645", "origin_country": "Denmark", "altitude_m": 655.32, "velocity_ms": 83.75, "heading": 137.49, "on_ground": false}}, {"type": "Feature", "geometry": {"type": "Point", "coordinates": [5.7939, 43.8597]}, "properties": {"icao24": "4404e6", "callsign": "EJU305M", "origin_country": "Austria", "altitude_m": 7109.46, "velocity_ms": 224.88, "heading": 139.83, "on_ground": false}}, {"type": "Feature", "geometry": {"type": "Point", "coordinates": [2.8759, 49.3139]}, "properties": {"icao24": "4952cf", "callsign": "TAP758", "origin_country": "Portugal", "altitude_m": 10972.8, "velocity_ms": 232.22, "heading": 43.03, "on_ground": false}}, {"type": "Feature", "geometry": {"type": "Point", "coordinates": [8.7167, 45.6255]}, "properties": {"icao24": "4952c9", "callsign": "TAP828", "origin_country": "Portugal", "altitude_m": null, "velocity_ms": 0.45, "heading": 168.75, "on_ground": true}}, {"type": "Feature", "geometry": {"type": "Point", "coordinates": [8.723, 45.6415]}, "properties": {"icao24": "440db0", "callsign": "EJU71CR", "origin_country": "Austria", "altitude_m": null, "velocity_ms": 1.29, "heading": 0, "on_ground": true}}, {"type": "Feature", "geometry": {"type": "Point", "coordinates": [5.1811, 48.7763]}, "properties": {"icao24": "408143", "callsign": "DHK528", "origin_country": "United Kingdom", "altitude_m": 11887.2, "velocity_ms": 258.82, "heading": 137.17, "on_ground": false}}, {"type": "Feature", "geometry": {"type": "Point", "coordinates": [2.9891, 48.8631]}, "properties": {"icao24": "40812e", "callsign": "EZY84FD", "origin_country": "United Kingdom", "altitude_m": 10980.42, "velocity_ms": 220.29, "heading": 323.45, "on_ground": false}}, {"type": "Feature", "geometry": {"type": "Point", "coordinates": [5.0491, 43.4234]}, "properties": {"icao24": "3b7b82", "callsign": "DRAGO13", "origin_country": "France", "altitude_m": 22.86, "velocity_ms": 15.48, "heading": 158.55, "on_ground": false}}, {"type": "Feature", "geometry": {"type": "Point", "coordinates": [1.9197, 42.8578]}, "properties": {"icao24": "408062", "callsign": "VIR411Y", "origin_country": "United Kingdom", "altitude_m": 11277.6, "velocity_ms": 253.78, "heading": 172.43, "on_ground": false}}, {"type": "Feature", "geometry": {"type": "Point", "coordinates": [8.9699, 50.6357]}, "properties": {"icao24": "3c5433", "callsign": "BCS9TC", "origin_country": "Germany", "altitude_m": 10058.4, "velocity_ms": 236.97, "heading": 63.16, "on_ground": false}}, {"type": "Feature", "geometry": {"type": "Point", "coordinates": [3.1154, 49.7725]}, "properties": {"icao24": "40804d", "callsign": "WUK6008", "origin_country": "United Kingdom", "altitude_m": 11574.78, "velocity_ms": 216, "heading": 300.17, "on_ground": false}}, {"type": "Feature", "geometry": {"type": "Point", "coordinates": [-4.3491, 46.3647]}, "properties": {"icao24": "40820f", "callsign": "EXS22M", "origin_country": "United Kingdom", "altitude_m": 11582.4, "velocity_ms": 271.98, "heading": 32.88, "on_ground": false}}, {"type": "Feature", "geometry": {"type": "Point", "coordinates": [2.7676, 41.8902]}, "properties": {"icao24": "47bf9d", "callsign": "NSZ5FQ", "origin_country": "Norway", "altitude_m": 11277.6, "velocity_ms": 249.06, "heading": 183.91, "on_ground": false}}, {"type": "Feature", "geometry": {"type": "Point", "coordinates": [-4.8929, 48.1436]}, "properties": {"icao24": "408260", "callsign": "EXS66ED", "origin_country": "United Kingdom", "altitude_m": 10965.18, "velocity_ms": 273.16, "heading": 19.02, "on_ground": false}}, {"type": "Feature", "geometry": {"type": "Point", "coordinates": [7.5109, 47.6161]}, "properties": {"icao24": "3888a3", "callsign": "TECH18", "origin_country": "France", "altitude_m": null, "velocity_ms": 23.15, "heading": 334.69, "on_ground": true}}, {"type": "Feature", "geometry": {"type": "Point", "coordinates": [2.3808, 48.7317]}, "properties": {"icao24": "3b8bff", "callsign": "", "origin_country": "France", "altitude_m": null, "velocity_ms": 13.38, "heading": 196.88, "on_ground": true}}, {"type": "Feature", "geometry": {"type": "Point", "coordinates": [6.9155, 49.2408]}, "properties": {"icao24": "4080f7", "callsign": "EZY18GD", "origin_country": "United Kingdom", "altitude_m": 10965.18, "velocity_ms": 223.94, "heading": 285.73, "on_ground": false}}, {"type": "Feature", "geometry": {"type": "Point", "coordinates": [-3.8895, 45.8354]}, "properties": {"icao24": "4080c2", "callsign": "RUK5632", "origin_country": "United Kingdom", "altitude_m": 10980.42, "velocity_ms": 267.06, "heading": 1.21, "on_ground": false}}, {"type": "Feature", "geometry": {"type": "Point", "coordinates": [-0.6662, 48.2838]}, "properties": {"icao24": "a5dc31", "callsign": "THY6082", "origin_country": "United States", "altitude_m": 11269.98, "velocity_ms": 260.14, "heading": 84.1, "on_ground": false}}, {"type": "Feature", "geometry": {"type": "Point", "coordinates": [7.0556, 43.1919]}, "properties": {"icao24": "440c35", "callsign": "EJU73ZE", "origin_country": "Austria", "altitude_m": 11346.18, "velocity_ms": 213.31, "heading": 38.83, "on_ground": false}}, {"type": "Feature", "geometry": {"type": "Point", "coordinates": [2.3645, 48.7245]}, "properties": {"icao24": "3bb9ff", "callsign": "INFRA3", "origin_country": "France", "altitude_m": null, "velocity_ms": 0, "heading": 81.56, "on_ground": true}}, {"type": "Feature", "geometry": {"type": "Point", "coordinates": [4.0463, 48.6978]}, "properties": {"icao24": "aa9bb7", "callsign": "AMX071", "origin_country": "United States", "altitude_m": 10965.18, "velocity_ms": 242.62, "heading": 322.67, "on_ground": false}}, {"type": "Feature", "geometry": {"type": "Point", "coordinates": [6.214, 50.1706]}, "properties": {"icao24": "408034", "callsign": "EXS9AG", "origin_country": "United Kingdom", "altitude_m": 10988.04, "velocity_ms": 221.39, "heading": 297.99, "on_ground": false}}, {"type": "Feature", "geometry": {"type": "Point", "coordinates": [2.0883, 50.1452]}, "properties": {"icao24": "440bce", "callsign": "BCS7017", "origin_country": "Austria", "altitude_m": 11582.4, "velocity_ms": 210.92, "heading": 311.94, "on_ground": false}}, {"type": "Feature", "geometry": {"type": "Point", "coordinates": [8.5504, 47.4628]}, "properties": {"icao24": "4b5c26", "callsign": "EUGEN5", "origin_country": "Switzerland", "altitude_m": null, "velocity_ms": 1.8, "heading": 191.25, "on_ground": true}}, {"type": "Feature", "geometry": {"type": "Point", "coordinates": [3.6463, 48.5201]}, "properties": {"icao24": "440bbf", "callsign": "BCS7331", "origin_country": "Austria", "altitude_m": 5745.48, "velocity_ms": 173.54, "heading": 308.5, "on_ground": false}}, {"type": "Feature", "geometry": {"type": "Point", "coordinates": [4.014, 49.1467]}, "properties": {"icao24": "4ca9cf", "callsign": "RYR8428", "origin_country": "Ireland", "altitude_m": 11582.4, "velocity_ms": 220.73, "heading": 298.24, "on_ground": false}}, {"type": "Feature", "geometry": {"type": "Point", "coordinates": [8.0618, 45.5108]}, "properties": {"icao24": "440bc8", "callsign": "BCS76P", "origin_country": "Austria", "altitude_m": 5242.56, "velocity_ms": 192.62, "heading": 288.53, "on_ground": false}}, {"type": "Feature", "geometry": {"type": "Point", "coordinates": [1.8015, 43.4702]}, "properties": {"icao24": "400684", "callsign": "BAW83", "origin_country": "United Kingdom", "altitude_m": 11277.6, "velocity_ms": 260.24, "heading": 172.05, "on_ground": false}}, {"type": "Feature", "geometry": {"type": "Point", "coordinates": [-0.9774, 46.7443]}, "properties": {"icao24": "3c7438", "callsign": "TUI7WT", "origin_country": "Germany", "altitude_m": 11582.4, "velocity_ms": 256.82, "heading": 44.84, "on_ground": false}}, {"type": "Feature", "geometry": {"type": "Point", "coordinates": [4.1227, 49.7516]}, "properties": {"icao24": "4ca92d", "callsign": "EIN44Y", "origin_country": "Ireland", "altitude_m": 10980.42, "velocity_ms": 220.2, "heading": 295.61, "on_ground": false}}, {"type": "Feature", "geometry": {"type": "Point", "coordinates": [-1.0681, 50.3833]}, "properties": {"icao24": "4ca84b", "callsign": "RYR89JD", "origin_country": "Ireland", "altitude_m": 11582.4, "velocity_ms": 249.02, "heading": 15.7, "on_ground": false}}, {"type": "Feature", "geometry": {"type": "Point", "coordinates": [8.7726, 45.4462]}, "properties": {"icao24": "4ca88c", "callsign": "RYR9EY", "origin_country": "Ireland", "altitude_m": 1112.52, "velocity_ms": 116.37, "heading": 350.33, "on_ground": false}}, {"type": "Feature", "geometry": {"type": "Point", "coordinates": [9.5165, 48.9037]}, "properties": {"icao24": "4ca813", "callsign": "RYR7VZ", "origin_country": "Ireland", "altitude_m": 11277.6, "velocity_ms": 216.13, "heading": 331.73, "on_ground": false}}, {"type": "Feature", "geometry": {"type": "Point", "coordinates": [3.0344, 41.4162]}, "properties": {"icao24": "4ca810", "callsign": "RYR7BE", "origin_country": "Ireland", "altitude_m": 5684.52, "velocity_ms": 234.49, "heading": 74.87, "on_ground": false}}, {"type": "Feature", "geometry": {"type": "Point", "coordinates": [-3.606, 41.1863]}, "properties": {"icao24": "4ca73f", "callsign": "RYR9UR", "origin_country": "Ireland", "altitude_m": 5928.36, "velocity_ms": 215.08, "heading": 358.9, "on_ground": false}}, {"type": "Feature", "geometry": {"type": "Point", "coordinates": [-0.0525, 45.6558]}, "properties": {"icao24": "4ca740", "callsign": "RYR37KT", "origin_country": "Ireland", "altitude_m": 11887.2, "velocity_ms": 228, "heading": 148.28, "on_ground": false}}, {"type": "Feature", "geometry": {"type": "Point", "coordinates": [0.9583, 50.3931]}, "properties": {"icao24": "4ca6a4", "callsign": "RYR51TU", "origin_country": "Ireland", "altitude_m": 10713.72, "velocity_ms": 226.64, "heading": 318.31, "on_ground": false}}, {"type": "Feature", "geometry": {"type": "Point", "coordinates": [4.8623, 50.9425]}, "properties": {"icao24": "3c1bb1", "callsign": "BCS8AA", "origin_country": "Germany", "altitude_m": 1219.2, "velocity_ms": 124.81, "heading": 287.02, "on_ground": false}}, {"type": "Feature", "geometry": {"type": "Point", "coordinates": [4.4642, 50.9036]}, "properties": {"icao24": "3c71a7", "callsign": "BCS6TP", "origin_country": "Germany", "altitude_m": null, "velocity_ms": 6.94, "heading": 73.12, "on_ground": true}}, {"type": "Feature", "geometry": {"type": "Point", "coordinates": [3.0747, 41.89]}, "properties": {"icao24": "4ca622", "callsign": "RYR7859", "origin_country": "Ireland", "altitude_m": 11887.2, "velocity_ms": 239.82, "heading": 223.35, "on_ground": false}}, {"type": "Feature", "geometry": {"type": "Point", "coordinates": [5.6355, 45.417]}, "properties": {"icao24": "4ca621", "callsign": "RYR42GU", "origin_country": "Ireland", "altitude_m": 11582.4, "velocity_ms": 215.11, "heading": 330.8, "on_ground": false}}, {"type": "Feature", "geometry": {"type": "Point", "coordinates": [0.8037, 41.1516]}, "properties": {"icao24": "4a512b", "callsign": "TIH002A", "origin_country": "Romania", "altitude_m": 12192, "velocity_ms": 256.46, "heading": 94.49, "on_ground": false}}, {"type": "Feature", "geometry": {"type": "Point", "coordinates": [2.3676, 48.7266]}, "properties": {"icao24": "3b27ff", "callsign": "FLYCO5", "origin_country": "France", "altitude_m": null, "velocity_ms": 1.29, "heading": 61.88, "on_ground": true}}, {"type": "Feature", "geometry": {"type": "Point", "coordinates": [7.1439, 50.8688]}, "properties": {"icao24": "a48c07", "callsign": "UPS243", "origin_country": "United States", "altitude_m": null, "velocity_ms": 4.89, "heading": 278.44, "on_ground": true}}, {"type": "Feature", "geometry": {"type": "Point", "coordinates": [6.3376, 50.5317]}, "properties": {"icao24": "40768b", "callsign": "EZY89YM", "origin_country": "United Kingdom", "altitude_m": 10972.8, "velocity_ms": 223.99, "heading": 290.43, "on_ground": false}}, {"type": "Feature", "geometry": {"type": "Point", "coordinates": [2.0725, 41.2909]}, "properties": {"icao24": "34744d", "callsign": "VLG87FD", "origin_country": "Spain", "altitude_m": null, "velocity_ms": 0.51, "heading": 154.69, "on_ground": true}}, {"type": "Feature", "geometry": {"type": "Point", "coordinates": [7.2855, 43.5221]}, "properties": {"icao24": "4074b5", "callsign": "EZY2628", "origin_country": "United Kingdom", "altitude_m": 11567.16, "velocity_ms": 205.51, "heading": 332.09, "on_ground": false}}, {"type": "Feature", "geometry": {"type": "Point", "coordinates": [8.9839, 47.1976]}, "properties": {"icao24": "3474cb", "callsign": "BCS136", "origin_country": "Spain", "altitude_m": 10614.66, "velocity_ms": 238.85, "heading": 197.42, "on_ground": false}}, {"type": "Feature", "geometry": {"type": "Point", "coordinates": [1.3609, 50.3948]}, "properties": {"icao24": "4076b0", "callsign": "TOM1GN", "origin_country": "United Kingdom", "altitude_m": 8221.98, "velocity_ms": 245.21, "heading": 308.7, "on_ground": false}}, {"type": "Feature", "geometry": {"type": "Point", "coordinates": [4.5764, 49.132]}, "properties": {"icao24": "407793", "callsign": "EZY18YQ", "origin_country": "United Kingdom", "altitude_m": 11582.4, "velocity_ms": 216.3, "heading": 307.85, "on_ground": false}}, {"type": "Feature", "geometry": {"type": "Point", "coordinates": [7.1247, 50.8802]}, "properties": {"icao24": "010248", "callsign": "NIA8404", "origin_country": "Egypt", "altitude_m": null, "velocity_ms": 5.92, "heading": 137.81, "on_ground": true}}, {"type": "Feature", "geometry": {"type": "Point", "coordinates": [2.364, 48.7246]}, "properties": {"icao24": "3b13ff", "callsign": "INFRA1", "origin_country": "France", "altitude_m": null, "velocity_ms": 0, "heading": 75.94, "on_ground": true}}, {"type": "Feature", "geometry": {"type": "Point", "coordinates": [8.2722, 50.3623]}, "properties": {"icao24": "4d24c0", "callsign": "CHZ212", "origin_country": "Malta", "altitude_m": 6088.38, "velocity_ms": 154.95, "heading": 303.9, "on_ground": false}}, {"type": "Feature", "geometry": {"type": "Point", "coordinates": [8.8308, 45.3363]}, "properties": {"icao24": "4d24b5", "callsign": "WMT3C", "origin_country": "Malta", "altitude_m": 1516.38, "velocity_ms": 105.87, "heading": 326.7, "on_ground": false}}, {"type": "Feature", "geometry": {"type": "Point", "coordinates": [0.2737, 44.0807]}, "properties": {"icao24": "4075f3", "callsign": "TOM8YB", "origin_country": "United Kingdom", "altitude_m": 10972.8, "velocity_ms": 237.74, "heading": 350.66, "on_ground": false}}, {"type": "Feature", "geometry": {"type": "Point", "coordinates": [4.8636, 43.4171]}, "properties": {"icao24": "3461ce", "callsign": "VOE8FR", "origin_country": "Spain", "altitude_m": 2232.66, "velocity_ms": 156.38, "heading": 350.72, "on_ground": false}}, {"type": "Feature", "geometry": {"type": "Point", "coordinates": [5.3209, 49.4504]}, "properties": {"icao24": "4d2509", "callsign": "EWG60W", "origin_country": "Malta", "altitude_m": 10972.8, "velocity_ms": 231.71, "heading": 66.17, "on_ground": false}}, {"type": "Feature", "geometry": {"type": "Point", "coordinates": [4.349, 41.7965]}, "properties": {"icao24": "4d251b", "callsign": "RYR93HA", "origin_country": "Malta", "altitude_m": 10073.64, "velocity_ms": 234.88, "heading": 50.24, "on_ground": false}}, {"type": "Feature", "geometry": {"type": "Point", "coordinates": [-4.6929, 48.3663]}, "properties": {"icao24": "4caf29", "callsign": "RYR3DJ", "origin_country": "Ireland", "altitude_m": 11582.4, "velocity_ms": 281.81, "heading": 24.37, "on_ground": false}}, {"type": "Feature", "geometry": {"type": "Point", "coordinates": [2.3102, 44.3983]}, "properties": {"icao24": "4caf2a", "callsign": "RYR47XF", "origin_country": "Ireland", "altitude_m": 10972.8, "velocity_ms": 226.26, "heading": 309.37, "on_ground": false}}, {"type": "Feature", "geometry": {"type": "Point", "coordinates": [5.9739, 50.542]}, "properties": {"icao24": "4cadbf", "callsign": "RYR7HV", "origin_country": "Ireland", "altitude_m": 10972.8, "velocity_ms": 220.9, "heading": 286.37, "on_ground": false}}, {"type": "Feature", "geometry": {"type": "Point", "coordinates": [8.8714, 48.3917]}, "properties": {"icao24": "4cadc1", "callsign": "RYR587A", "origin_country": "Ireland", "altitude_m": 11582.4, "velocity_ms": 216.09, "heading": 311.62, "on_ground": false}}, {"type": "Feature", "geometry": {"type": "Point", "coordinates": [9.7541, 45.6591]}, "properties": {"icao24": "4cadc3", "callsign": "RYR81LE", "origin_country": "Ireland", "altitude_m": 259.08, "velocity_ms": 79.6, "heading": 284.22, "on_ground": false}}, {"type": "Feature", "geometry": {"type": "Point", "coordinates": [-1.4113, 49.1472]}, "properties": {"icao24": "4cade2", "callsign": "RYR6PD", "origin_country": "Ireland", "altitude_m": 11582.4, "velocity_ms": 264.15, "heading": 24.02, "on_ground": false}}, {"type": "Feature", "geometry": {"type": "Point", "coordinates": [1.6125, 48.4543]}, "properties": {"icao24": "4d2414", "callsign": "EWG6TR", "origin_country": "Malta", "altitude_m": 10363.2, "velocity_ms": 235.44, "heading": 48.54, "on_ground": false}}, {"type": "Feature", "geometry": {"type": "Point", "coordinates": [3.5479, 42.5394]}, "properties": {"icao24": "346091", "callsign": "VLG6339", "origin_country": "Spain", "altitude_m": 8366.76, "velocity_ms": 225.35, "heading": 214.96, "on_ground": false}}, {"type": "Feature", "geometry": {"type": "Point", "coordinates": [7.6099, 43.7924]}, "properties": {"icao24": "4cadb9", "callsign": "RYR265", "origin_country": "Ireland", "altitude_m": 9243.06, "velocity_ms": 241.3, "heading": 43.19, "on_ground": false}}, {"type": "Feature", "geometry": {"type": "Point", "coordinates": [5.6573, 48.9003]}, "properties": {"icao24": "4cadb7", "callsign": "RYR9P", "origin_country": "Ireland", "altitude_m": 11582.4, "velocity_ms": 219.83, "heading": 321.84, "on_ground": false}}, {"type": "Feature", "geometry": {"type": "Point", "coordinates": [6.7965, 50.0571]}, "properties": {"icao24": "406229", "callsign": "EZY21TX", "origin_country": "United Kingdom", "altitude_m": 10972.8, "velocity_ms": 223.75, "heading": 301.46, "on_ground": false}}, {"type": "Feature", "geometry": {"type": "Point", "coordinates": [1.1478, 45.2894]}, "properties": {"icao24": "346043", "callsign": "VOE81QA", "origin_country": "Spain", "altitude_m": 7376.16, "velocity_ms": 186.28, "heading": 255.77, "on_ground": false}}, {"type": "Feature", "geometry": {"type": "Point", "coordinates": [-3.159, 42.6795]}, "properties": {"icao24": "40756e", "callsign": "EZY15GK", "origin_country": "United Kingdom", "altitude_m": 11582.4, "velocity_ms": 240.56, "heading": 13.86, "on_ground": false}}, {"type": "Feature", "geometry": {"type": "Point", "coordinates": [2.0936, 41.2889]}, "properties": {"icao24": "4d2490", "callsign": "WMT3HY", "origin_country": "Malta", "altitude_m": -22.86, "velocity_ms": 78.77, "heading": 66.11, "on_ground": false}}, {"type": "Feature", "geometry": {"type": "Point", "coordinates": [5.3364, 47.7256]}, "properties": {"icao24": "4cae97", "callsign": "RYR3N", "origin_country": "Ireland", "altitude_m": 11582.4, "velocity_ms": 219.68, "heading": 318.13, "on_ground": false}}, {"type": "Feature", "geometry": {"type": "Point", "coordinates": [-3.7961, 50.8081]}, "properties": {"icao24": "4cae90", "callsign": "RYR5MW", "origin_country": "Ireland", "altitude_m": 10355.58, "velocity_ms": 270.69, "heading": 12.85, "on_ground": false}}, {"type": "Feature", "geometry": {"type": "Point", "coordinates": [2.6548, 49.8893]}, "properties": {"icao24": "4073a0", "callsign": "EZY12CX", "origin_country": "United Kingdom", "altitude_m": 11582.4, "velocity_ms": 218.23, "heading": 302.19, "on_ground": false}}, {"type": "Feature", "geometry": {"type": "Point", "coordinates": [5.1955, 47.6932]}, "properties": {"icao24": "4cae68", "callsign": "RYR84LQ", "origin_country": "Ireland", "altitude_m": 10972.8, "velocity_ms": 227.18, "heading": 323.29, "on_ground": false}}, {"type": "Feature", "geometry": {"type": "Point", "coordinates": [1.6184, 50.3662]}, "properties": {"icao24": "4cae69", "callsign": "RYR3EB", "origin_country": "Ireland", "altitude_m": 10972.8, "velocity_ms": 230.85, "heading": 319.07, "on_ground": false}}, {"type": "Feature", "geometry": {"type": "Point", "coordinates": [7.1608, 48.6938]}, "properties": {"icao24": "4caca2", "callsign": "ABR177", "origin_country": "Ireland", "altitude_m": 6096, "velocity_ms": 140.12, "heading": 334.09, "on_ground": false}}, {"type": "Feature", "geometry": {"type": "Point", "coordinates": [7.4383, 45.1725]}, "properties": {"icao24": "34838b", "callsign": "VOE2827", "origin_country": "Spain", "altitude_m": 8717.28, "velocity_ms": 188.89, "heading": 287.6, "on_ground": false}}, {"type": "Feature", "geometry": {"type": "Point", "coordinates": [6.3343, 50.2373]}, "properties": {"icao24": "3c56ef", "callsign": "EWG32B", "origin_country": "Germany", "altitude_m": 6736.08, "velocity_ms": 192.4, "heading": 359.85, "on_ground": false}}, {"type": "Feature", "geometry": {"type": "Point", "coordinates": [-2.5018, 48.2489]}, "properties": {"icao24": "4d234b", "callsign": "RYR200Z", "origin_country": "Malta", "altitude_m": 11582.4, "velocity_ms": 267.96, "heading": 33.96, "on_ground": false}}, {"type": "Feature", "geometry": {"type": "Point", "coordinates": [7.6142, 50.9516]}, "properties": {"icao24": "3c56f7", "callsign": "EWG9Y", "origin_country": "Germany", "altitude_m": 3779.52, "velocity_ms": 143.31, "heading": 291.04, "on_ground": false}}, {"type": "Feature", "geometry": {"type": "Point", "coordinates": [-0.1863, 45.5201]}, "properties": {"icao24": "4d2350", "callsign": "RYR4SG", "origin_country": "Malta", "altitude_m": 10972.8, "velocity_ms": 240.63, "heading": 348.91, "on_ground": false}}, {"type": "Feature", "geometry": {"type": "Point", "coordinates": [6.8198, 50.808]}, "properties": {"icao24": "4d232c", "callsign": "CXI4KJ", "origin_country": "Malta", "altitude_m": 2743.2, "velocity_ms": 128.37, "heading": 252.51, "on_ground": false}}, {"type": "Feature", "geometry": {"type": "Point", "coordinates": [-3.5163, 48.2333]}, "properties": {"icao24": "4d2384", "callsign": "RYR69XT", "origin_country": "Malta", "altitude_m": 10972.8, "velocity_ms": 246.41, "heading": 321.53, "on_ground": false}}, {"type": "Feature", "geometry": {"type": "Point", "coordinates": [-1.0305, 42.6412]}, "properties": {"icao24": "4d2382", "callsign": "RYR8HM", "origin_country": "Malta", "altitude_m": 10972.8, "velocity_ms": 246.93, "heading": 75.65, "on_ground": false}}, {"type": "Feature", "geometry": {"type": "Point", "coordinates": [4.4201, 50.8238]}, "properties": {"icao24": "4cad7f", "callsign": "EIN3AV", "origin_country": "Ireland", "altitude_m": 10972.8, "velocity_ms": 218.65, "heading": 285.28, "on_ground": false}}, {"type": "Feature", "geometry": {"type": "Point", "coordinates": [8.2515, 49.5602]}, "properties": {"icao24": "347191", "callsign": "BCS408", "origin_country": "Spain", "altitude_m": 10363.2, "velocity_ms": 211.77, "heading": 350.49, "on_ground": false}}, {"type": "Feature", "geometry": {"type": "Point", "coordinates": [8.5349, 50.0352]}, "properties": {"icao24": "3c4374", "callsign": "APT14", "origin_country": "Germany", "altitude_m": null, "velocity_ms": 3.86, "heading": 202.5, "on_ground": true}}, {"type": "Feature", "geometry": {"type": "Point", "coordinates": [3.6699, 41.0879]}, "properties": {"icao24": "4d221e", "callsign": "RYR17KF", "origin_country": "Malta", "altitude_m": 7886.7, "velocity_ms": 215.04, "heading": 269.59, "on_ground": false}}, {"type": "Feature", "geometry": {"type": "Point", "coordinates": [-1.6973, 41.3361]}, "properties": {"icao24": "34714e", "callsign": "VOE4JK", "origin_country": "Spain", "altitude_m": 11582.4, "velocity_ms": 238.39, "heading": 37.02, "on_ground": false}}, {"type": "Feature", "geometry": {"type": "Point", "coordinates": [6.1891, 47.8968]}, "properties": {"icao24": "4d2218", "callsign": "RYR3AT", "origin_country": "Malta", "altitude_m": 10972.8, "velocity_ms": 220.86, "heading": 313.77, "on_ground": false}}, {"type": "Feature", "geometry": {"type": "Point", "coordinates": [-3.7979, 45.2429]}, "properties": {"icao24": "4d220b", "callsign": "RYR10AM", "origin_country": "Malta", "altitude_m": 11582.4, "velocity_ms": 256.71, "heading": 0.34, "on_ground": false}}, {"type": "Feature", "geometry": {"type": "Point", "coordinates": [2.7108, 43.2393]}, "properties": {"icao24": "4d226d", "callsign": "RYR5ST", "origin_country": "Malta", "altitude_m": 8907.78, "velocity_ms": 244.69, "heading": 165.26, "on_ground": false}}, {"type": "Feature", "geometry": {"type": "Point", "coordinates": [-3.8998, 45.4656]}, "properties": {"icao24": "406016", "callsign": "EZY94NU", "origin_country": "United Kingdom", "altitude_m": 10965.18, "velocity_ms": 261.91, "heading": 1.24, "on_ground": false}}, {"type": "Feature", "geometry": {"type": "Point", "coordinates": [8.3727, 44.3648]}, "properties": {"icao24": "4d227d", "callsign": "RYR4LN", "origin_country": "Malta", "altitude_m": 9144, "velocity_ms": 242.78, "heading": 43.03, "on_ground": false}}, {"type": "Feature", "geometry": {"type": "Point", "coordinates": [6.8623, 43.3521]}, "properties": {"icao24": "4d223f", "callsign": "RYR9DB", "origin_country": "Malta", "altitude_m": 10210.8, "velocity_ms": 222.27, "heading": 44.53, "on_ground": false}}, {"type": "Feature", "geometry": {"type": "Point", "coordinates": [-3.8455, 44.7745]}, "properties": {"icao24": "4d2262", "callsign": "RYR169Q", "origin_country": "Malta", "altitude_m": 11887.2, "velocity_ms": 196.31, "heading": 192.87, "on_ground": false}}, {"type": "Feature", "geometry": {"type": "Point", "coordinates": [-3.6318, 50.66]}, "properties": {"icao24": "4d2264", "callsign": "RYR1KG", "origin_country": "Malta", "altitude_m": 11582.4, "velocity_ms": 267.87, "heading": 6.84, "on_ground": false}}, {"type": "Feature", "geometry": {"type": "Point", "coordinates": [-4.9293, 49.0887]}, "properties": {"icao24": "4d2265", "callsign": "RYR1BY", "origin_country": "Malta", "altitude_m": 7620, "velocity_ms": 267.47, "heading": 348.24, "on_ground": false}}, {"type": "Feature", "geometry": {"type": "Point", "coordinates": [8.7226, 45.6182]}, "properties": {"icao24": "4d20c0", "callsign": "WMT7A", "origin_country": "Malta", "altitude_m": null, "velocity_ms": 6.69, "heading": 168.75, "on_ground": true}}, {"type": "Feature", "geometry": {"type": "Point", "coordinates": [-2.5472, 48.9099]}, "properties": {"icao24": "408352", "callsign": "EXS232A", "origin_country": "United Kingdom", "altitude_m": 11582.4, "velocity_ms": 269.5, "heading": 37.79, "on_ground": false}}, {"type": "Feature", "geometry": {"type": "Point", "coordinates": [0.896, 43.0627]}, "properties": {"icao24": "40836d", "callsign": "EZY98QG", "origin_country": "United Kingdom", "altitude_m": 10972.8, "velocity_ms": 223.98, "heading": 345.23, "on_ground": false}}, {"type": "Feature", "geometry": {"type": "Point", "coordinates": [5.9399, 42.7943]}, "properties": {"icao24": "4d2101", "callsign": "WMT7D", "origin_country": "Malta", "altitude_m": 10363.2, "velocity_ms": 231.47, "heading": 51.68, "on_ground": false}}, {"type": "Feature", "geometry": {"type": "Point", "coordinates": [-4.0953, 49.2709]}, "properties": {"icao24": "408305", "callsign": "EXS24PV", "origin_country": "United Kingdom", "altitude_m": 10972.8, "velocity_ms": 272.67, "heading": 19.05, "on_ground": false}}, {"type": "Feature", "geometry": {"type": "Point", "coordinates": [1.1864, 50.9464]}, "properties": {"icao24": "407179", "callsign": "EXS85BH", "origin_country": "United Kingdom", "altitude_m": 10668, "velocity_ms": 232.16, "heading": 316.44, "on_ground": false}}, {"type": "Feature", "geometry": {"type": "Point", "coordinates": [7.6016, 47.7866]}, "properties": {"icao24": "407177", "callsign": "EXS97YF", "origin_country": "United Kingdom", "altitude_m": 10972.8, "velocity_ms": 215.78, "heading": 304.9, "on_ground": false}}, {"type": "Feature", "geometry": {"type": "Point", "coordinates": [7.5518, 49.2766]}, "properties": {"icao24": "4d2006", "callsign": "EWG8PR", "origin_country": "Malta", "altitude_m": 10675.62, "velocity_ms": 229.76, "heading": 81.76, "on_ground": false}}, {"type": "Feature", "geometry": {"type": "Point", "coordinates": [-3.2606, 45.8007]}, "properties": {"icao24": "4082e7", "callsign": "RUK748P", "origin_country": "United Kingdom", "altitude_m": 11582.4, "velocity_ms": 259.45, "heading": 20.3, "on_ground": false}}, {"type": "Feature", "geometry": {"type": "Point", "coordinates": [8.5651, 47.4419]}, "properties": {"icao24": "4b17e3", "callsign": "SWR1MH", "origin_country": "Switzerland", "altitude_m": null, "velocity_ms": 0, "heading": 146.25, "on_ground": true}}]}